HORYU-4                 
1 41340U 16012D   21098.76745863  .00000701  00000-0  45798-4 0  9993
2 41340  31.0046 250.7369 0013753 201.5510 158.4548 15.01818949282309
OUFTI-1                 
1 41458U 16025C   21098.33353333  .00001594  00000-0  81482-4 0  9998
2 41458  98.1320 231.2764 0158162 296.3674  62.1388 15.08240939271900
E-ST@R-II               
1 41459U 16025D   21099.13729850  .00001145  00000-0  60530-4 0  9992
2 41459  98.1288 231.2675 0159611 296.3634  62.1259 15.07698851271974
AAUSAT 4                
1 41460U 16025E   21099.10544299  .00002531  00000-0  12257-3 0  9995
2 41460  98.1272 234.7680 0147468 281.1523  77.3242 15.10579621272247
AIST-2D (RS-48)         
1 41465U 16026B   21099.08961574  .00001941  00000-0  57631-4 0  9997
2 41465  97.1167 345.5518 0009247 265.4905 200.6409 15.35941574276782
SAMSAT-218D             
1 41466U 16026C   21099.03033622  .00014132  00000-0  22733-3 0  9997
2 41466  97.1612   7.4621 0004456 166.1792 319.4830 15.53083178278051
NUSAT-1 (FRESCO)        
1 41557U 16033B   21099.11169076  .00001872  00000-0  68677-4 0  9993
2 41557  97.3906 193.4635 0014578 117.6817   5.2062 15.29150378270932
NUSAT-2 (BATATA)        
1 41558U 16033C   21099.26542841  .00001899  00000-0  65346-4 0  9994
2 41558  97.4003 197.1190 0013712 112.1720 331.6475 15.31248099271139
CARTOSAT-2C             
1 41599U 16040A   21099.09025145  .00000441  00000-0  24101-4 0  9997
2 41599  97.4070 159.8058 0012280 257.1697 124.9104 15.19289552265981
SATHYABAMASAT           
1 41600U 16040B   21098.90049410  .00002414  00000-0  97005-4 0  9995
2 41600  97.2805 157.9283 0012060 217.4169 142.6231 15.25821186266549
LAPAN-A3                
1 41603U 16040E   21099.07294361  .00000087  00000-0  71059-5 0  9990
2 41603  97.2656 148.6068 0011703 243.5491 200.9234 15.19994183266042
BIROS                   
1 41604U 16040F   21098.73388573  .00000684  00000-0  32436-4 0  9990
2 41604  97.2712 153.4710 0011022 220.1980 139.8442 15.22463921266295
SWAYAM                  
1 41607U 16040J   21098.38545924  .00002667  00000-0  10793-3 0  9993
2 41607  97.2759 156.2991 0011608 219.1897 140.8502 15.25493972266365
BEESAT-4                
1 41619U 16040W   21098.72658659  .00002150  00000-0  88409-4 0  9991
2 41619  97.2778 156.7566 0009906 209.2270 150.8415 15.25184310254381
3CAT-2                  
1 41732U 16051B   21099.00810304  .00001638  00000-0  61358-4 0  9992
2 41732  97.3762  19.8934 0014241  38.3498  20.6432 15.28628279258893
PRATHAM                 
1 41783U 16059A   21098.70978793  .00000072  00000-0  22852-4 0  9996
2 41783  97.9729 151.1759 0034930 105.5367 254.9696 14.63125711242058
ALSAT 1N                
1 41789U 16059G   21099.01765108  .00000080  00000-0  23912-4 0  9998
2 41789  97.9767 154.9955 0029784  90.6621 269.7995 14.64404898242281
LISHUI 1-01             
1 41845U 16066E   21099.05990024  .00002798  00000-0  37094-3 0  9993
2 41845  98.7269 198.8519 0269135 334.1693  24.6267 14.58704585233283
CARTOSAT-2D             
1 41948U 17008A   21098.65995844  .00002039  00000-0  10000-3 0  9990
2 41948  97.4485 159.9679 0008885  51.6206 308.5789 15.19215864229780
NAYIF-1 (EO-88)         
1 42017U 17008BX  21098.75211893  .00002406  00000-0  91266-4 0  9996
2 42017  97.3218 167.5961 0005980  13.4697 346.6701 15.27812418230611
ZHUHAI-1 02 (CAS-4B)    
1 42759U 17034B   21099.17547969  .00000252  00000-0  28558-4 0  9992
2 42759  43.0173 201.9278 0007942  86.0731 348.5461 15.10144906210671
ZHUHAI-1 01 (CAS-4A)    
1 42761U 17034D   21099.17014071  .00000246  00000-0  28152-4 0  9991
2 42761  43.0172 201.0630 0008158  90.5096 343.3167 15.10226205210679
UCLSAT                  
1 42765U 17036A   21098.82639164  .00001868  00000-0  78518-4 0  9996
2 42765  97.2582 150.5681 0012554  68.2394 292.0179 15.24572466210975
NIUSAT                  
1 42766U 17036B   21098.71985202  .00001399  00000-0  63069-4 0  9996
2 42766  97.2588 147.0925 0016676  64.9284 295.3682 15.22511059210608
CARTOSAT-2E             
1 42767U 17036C   21098.21763427  .00000443  00000-0  24272-4 0  9997
2 42767  97.5122 157.6529 0010316  93.9910 307.7382 15.19249450210284
LITUANICASAT-2          
1 42768U 17036D   21098.77283541  .00003318  00000-0  13218-3 0  9994
2 42768  97.2658 151.1089 0015270  57.9199 302.3520 15.25808546210840
AALTO-1                 
1 42775U 17036L   21098.69116659  .00001213  00000-0  55149-4 0  9990
2 42775  97.2559 147.3458 0015142  64.3976 295.8823 15.22499936210587
URSA MAIOR              
1 42776U 17036M   21098.37671268  .00001441  00000-0  64512-4 0  9995
2 42776  97.2573 147.4688 0014945  65.0229 295.2559 15.22746002210555
COMPASS 2               
1 42777U 17036N   21099.11434644  .00002545  00000-0  10365-3 0  9996
2 42777  97.2638 151.6746 0013164  58.9639 301.2890 15.25309076210845
MAX VALIER SAT          
1 42778U 17036P   21098.74860298  .00001395  00000-0  61405-4 0  9997
2 42778  97.2636 149.6222 0013541  66.7196 293.5465 15.23388817210674
PEGASUS                 
1 42784U 17036V   21098.72163309  .00001713  00000-0  73065-4 0  9990
2 42784  97.2590 150.0266 0013157  69.7052 290.5599 15.24168471210736
NUDTSAT                 
1 42787U 17036Y   21098.87897238  .00002600  00000-0  10380-3 0  9990
2 42787  97.2628 152.3600 0012463  62.7612 297.4892 15.25961635210727
SUCHAI                  
1 42788U 17036Z   21098.88688774  .00002108  00000-0  87381-4 0  9994
2 42788  97.2601 151.0870 0012624  67.3478 292.9094 15.24904145210887
SKCUBE                  
1 42789U 17036AA  21098.37949123  .00002127  00000-0  88766-4 0  9996
2 42789  97.2594 150.3396 0012554  69.1903 291.0679 15.24664439210719
VZLUSAT-1               
1 42790U 17036AB  21098.74087584  .00002678  00000-0  10694-3 0  9998
2 42790  97.2626 152.2169 0011813  65.2814 294.9653 15.25940416210853
ROBUSTA-1B              
1 42792U 17036AD  21098.88397097  .00001930  00000-0  80274-4 0  9990
2 42792  97.2595 151.1812 0012111  67.8720 292.3803 15.24895298210821
D-SAT                   
1 42794U 17036AF  21099.32711406  .00000429  00000-0  41762-4 0  9997
2 42794  97.4675 122.8722 0127365  96.8987 264.6741 14.91503850206791
NORSAT 2                
1 42828U 17042D   21099.08030428  .00000392  00000-0  44003-4 0  9993
2 42828  97.4879 333.5539 0015001  22.9193 337.2693 14.91787333203378
TECHNOSAT               
1 42829U 17042E   21099.20853272  .00000195  00000-0  24878-4 0  9997
2 42829  97.4797 332.3848 0014815  24.2704 335.9210 14.91250234203367
2017-042F               
1 42830U 17042F   21099.09970984  .00000614  00000-0  64530-4 0  9991
2 42830  97.4911 334.6440 0014726  17.8409 342.3325 14.92745109203451
FLYING LAPTOP           
1 42831U 17042G   21099.24965656 -.00000083  00000-0 -30400-5 0  9991
2 42831  97.4819 332.6285 0014840  23.8037 336.3859 14.91265266203371
CORVUS BC2              
1 42846U 17042X   21098.69723873  .00000030  00000-0  81490-5 0  9993
2 42846  97.4835 334.2472 0010113  20.9712 339.1921 14.92261077203433
CORVUS BC1              
1 42847U 17042Y   21099.07509237  .00000312  00000-0  35676-4 0  9990
2 42847  97.4837 334.8312 0009689  19.0650 341.0931 14.92363985203491
SIMPL                   
1 42983U 98067NF  21099.03830596  .00009073  00000-0  93716-4 0  9990
2 42983  51.6360 251.7686 0003371  87.4397 272.6984 15.65608729196526
CZ-4C R/B               
1 43012U 17072C   21099.08961105  .00000075  00000-0  27212-4 0  9998
2 43012  98.7328 110.5237 0127032 204.2765 155.2414 14.56157857180649
RADFXSAT (FOX-1B)       
1 43017U 17073E   21098.53737875  .00000551  00000-0  47677-4 0  9994
2 43017  97.7119   5.2884 0255613 168.1512 192.5873 14.79418755182786
EAGLESAT 1              
1 43018U 17073F   21098.68753832  .00000939  00000-0  76233-4 0  9992
2 43018  97.7123   6.2089 0252497 164.6652 196.2398 14.80392598182728
ECAMSAT                 
1 43019U 98067NG  21098.81478729  .00025584  00000-0  16725-3 0  9991
2 43019  51.6374 224.0965 0002418  57.9416 302.1818 15.75652503279190
INS-1C                  
1 43116U 18004F   21098.70338653  .00001751  00000-0  73218-4 0  9992
2 43116  97.4181 173.8374 0010789  88.8459 271.4015 15.24883568180017
FLOCK 3P'-3             
1 43119U 18004J   21098.62752892  .00001254  00000-0  54530-4 0  9995
2 43119  97.4170 172.7596 0011714  96.4039 263.8533 15.24075379179943
FLOCK 3P'-2             
1 43120U 18004K   21098.98288434  .00000965  00000-0  43021-4 0  9993
2 43120  97.4175 172.9359 0011735  95.8444 264.4131 15.23778798179984
FLOCK 3P'-1             
1 43121U 18004L   21098.62370249  .00004097  00000-0  15937-3 0  9995
2 43121  97.4174 174.1380 0010787  92.1872 268.0602 15.26542522179961
FLOCK 3P'-4             
1 43122U 18004M   21098.65127560  .00001031  00000-0  45688-4 0  9997
2 43122  97.4184 172.7026 0011539  98.5525 261.7020 15.23807010179939
MICROMAS-2A             
1 43131U 18004W   21098.79898489  .00003192  00000-0  12343-3 0  9998
2 43131  97.4153 175.1750 0010228  90.9531 269.2879 15.26915057180136
PICSAT                  
1 43132U 18004X   21098.80108753  .00001797  00000-0  73562-4 0  9999
2 43132  97.4130 173.9706 0010863  94.2661 265.9818 15.25568497180064
CNUSAIL-1               
1 43133U 18004Y   21098.65323238  .00001439  00000-0  61143-4 0  9995
2 43133  97.4109 172.9614 0010990  96.3867 263.8623 15.24637073179997
2018-004Z               
1 43134U 18004Z   21098.76837031  .00001755  00000-0  72689-4 0  9997
2 43134  97.4123 173.6726 0010742  95.3513 264.8951 15.25203259180047
FOX-1D (AO-92)          
1 43137U 18004AC  21098.78675409  .00001530  00000-0  64104-4 0  9995
2 43137  97.4109 173.5265 0010569  96.5332 263.7110 15.25014019180049
STEP CUBE LAB           
1 43138U 18004AD  21099.16681177  .00002709  00000-0  10630-3 0  9991
2 43138  97.4148 175.4290 0010226  93.5818 266.6591 15.26562447180182
